{"type": "FeatureCollection", "features": [ {"type": "Feature", "properties": {"norad_id": 54234, "name": "NOAA 21 (JPSS-2)", "group": "weather", "lat": -6.056812956467954, "lon": 107.51142776899293, "alt_km": 831.9751467214155, "timestamp": "2025-12-18T04:58:34.224601+00:00", "meta": {"OBJECT_NAME": "NOAA 21 (JPSS-2)", "OBJECT_ID": "2022-150A", "EPOCH": "2025-12-17T19:38:40.048512", "MEAN_MOTION": 14.19525664, "ECCENTRICITY": 0.00020066, "INCLINATION": 98.7467, "RA_OF_ASC_NODE": 288.0635, "ARG_OF_PERICENTER": 28.0934, "MEAN_ANOMALY": 332.035, "EPHEMERIS_TYPE": 0, "CLASSIFICATION_TYPE": "U", "NORAD_CAT_ID": 54234, "ELEMENT_SET_NO": 999, "REV_AT_EPOCH": 16081, "BSTAR": 4.2797059e-05, "MEAN_MOTION_DOT": 4.6e-07, "MEAN_MOTION_DDOT": 0}, "tle": {"line1": "1 54234U 22150A   25351.81851908  .00000046  00000+0  42797-4 0  9996", "line2": "2 54234  98.7467 288.0635 0002006  28.0934 332.0350 14.19525664160812"}}, "geometry": {"type": "Point", "coordinates": [107.51142776899293, -6.056812956467954]}}, {"type": "Feature", "properties": {"norad_id": 54743, "name": "METEOSAT-12 (MTG-I1)", "group": "weather", "lat": 0.4747546225606783, "lon": 161.3936222294539, "alt_km": 35787.830453582974, "timestamp": "2025-12-18T04:58:34.224613+00:00", "meta": {"OBJECT_NAME": "METEOSAT-12 (MTG-I1)", "OBJECT_ID": "2022-170C", "EPOCH": "2025-12-17T18:27:38.045376", "MEAN_MOTION": 1.00270194, "ECCENTRICITY": 0.00015074, "INCLINATION": 0.6921, "RA_OF_ASC_NODE": 24.4378, "ARG_OF_PERICENTER": 239.4583, "MEAN_ANOMALY": 99.3598, "EPHEMERIS_TYPE": 0, "CLASSIFICATION_TYPE": "U", "NORAD_CAT_ID": 54743, "ELEMENT_SET_NO": 999, "REV_AT_EPOCH": 1115, "BSTAR": 0, "MEAN_MOTION_DOT": 1.7e-07, "MEAN_MOTION_DDOT": 0}, "tle": {"line1": "1 54743U 22170C   25351.76919034  .00000017  00000+0  00000+0 0  9996", "line2": "2 54743   0.6921  24.4378 0001507 239.4583  99.3598  1.00270194 11153"}}, "geometry": {"type": "Point", "coordinates": [161.3936222294539, 0.4747546225606783]}}, {"type": "Feature", "properties": {"norad_id": 55973, "name": "TIANMU-1 03", "group": "weather", "lat": -21.022177648914003, "lon": 157.91786123920673, "alt_km": 447.1653825091016, "timestamp": "2025-12-18T04:58:34.224624+00:00", "meta": {"OBJECT_NAME": "TIANMU-1 03", "OBJECT_ID": "2023-039A", "EPOCH": "2025-12-17T22:50:04.272576", "MEAN_MOTION": 15.41073492, "ECCENTRICITY": 0.00041956, "INCLINATION": 97.5101, "RA_OF_ASC_NODE": 154.7487, "ARG_OF_PERICENTER": 46.3803, "MEAN_ANOMALY": 313.7791, "EPHEMERIS_TYPE": 0, "CLASSIFICATION_TYPE": "U", "NORAD_CAT_ID": 55973, "ELEMENT_SET_NO": 999, "REV_AT_EPOCH": 15286, "BSTAR": 0.00030569043, "MEAN_MOTION_DOT": 0.00012556, "MEAN_MOTION_DDOT": 0}, "tle": {"line1": "1 55973U 23039A   25351.95143834  .00012556  00000+0  30569-3 0  9993", "line2": "2 55973  97.5101 154.7487 0004195  46.3803 313.7791 15.41073492152862"}}, "geometry": {"type": "Point", "coordinates": [157.91786123920673, -21.022177648914003]}}, {"type": "Feature", "properties": {"norad_id": 55974, "name": "TIANMU-1 04", "group": "weather", "lat": 77.80726473864111, "lon": 11.789675243733969, "alt_km": 433.0075830044225, "timestamp": "2025-12-18T04:58:34.224642+00:00", "meta": {"OBJECT_NAME": "TIANMU-1 04", "OBJECT_ID": "2023-039B", "EPOCH": "2025-12-17T23:52:18.821856", "MEAN_MOTION": 15.41415019, "ECCENTRICITY": 0.00048073, "INCLINATION": 97.5033, "RA_OF_ASC_NODE": 153.982, "ARG_OF_PERICENTER": 40.2067, "MEAN_ANOMALY": 319.9535, "EPHEMERIS_TYPE": 0, "CLASSIFICATION_TYPE": "U", "NORAD_CAT_ID": 55974, "ELEMENT_SET_NO": 999, "REV_AT_EPOCH": 15287, "BSTAR": 0.0003218097, "MEAN_MOTION_DOT": 0.00013377, "MEAN_MOTION_DDOT": 0}, "tle": {"line1": "1 55974U 23039B   25351.99466229  .00013377  00000+0  32181-3 0  9998", "line2": "2 55974  97.5033 153.9820 0004807  40.2067 319.9535 15.41415019152874"}}, "geometry": {"type": "Point", "coordinates": [11.789675243733969, 77.80726473864111]}}, {"type": "Feature", "properties": {"norad_id": 55975, "name": "TIANMU-1 05", "group": "weather", "lat": 55.19618610804722, "lon": -14.369623825954486, "alt_km": 436.44926081379435, "timestamp": "2025-12-18T04:58:34.224655+00:00", "meta": {"OBJECT_NAME": "TIANMU-1 05", "OBJECT_ID": "2023-039C", "EPOCH": "2025-12-17T23:45:53.966016", "MEAN_MOTION": 15.41031519, "ECCENTRICITY": 0.00042169, "INCLINATION": 97.5079, "RA_OF_ASC_NODE": 154.4701, "ARG_OF_PERICENTER": 63.8753, "MEAN_ANOMALY": 296.2926, "EPHEMERIS_TYPE": 0, "CLASSIFICATION_TYPE": "U", "NORAD_CAT_ID": 55975, "ELEMENT_SET_NO": 999, "REV_AT_EPOCH": 15285, "BSTAR": 0.00030153658, "MEAN_MOTION_DOT": 0.00012367, "MEAN_MOTION_DDOT": 0}, "tle": {"line1": "1 55975U 23039C   25351.99020794  .00012367  00000+0  30154-3 0  9998", "line2": "2 55975  97.5079 154.4701 0004216  63.8753 296.2926 15.41031519152854"}}, "geometry": {"type": "Point", "coordinates": [-14.369623825954486, 55.19618610804722]}}, {"type": "Feature", "properties": {"norad_id": 55976, "name": "TIANMU-1 06", "group": "weather", "lat": 82.34917094712205, "lon": 76.06726767419539, "alt_km": 431.6722131137103, "timestamp": "2025-12-18T04:58:34.224666+00:00", "meta": {"OBJECT_NAME": "TIANMU-1 06", "OBJECT_ID": "2023-039D", "EPOCH": "2025-12-17T23:55:11.481888", "MEAN_MOTION": 15.414667, "ECCENTRICITY": 0.00044907, "INCLINATION": 97.509, "RA_OF_ASC_NODE": 154.9461, "ARG_OF_PERICENTER": 58.3216, "MEAN_ANOMALY": 301.8468, "EPHEMERIS_TYPE": 0, "CLASSIFICATION_TYPE": "U", "NORAD_CAT_ID": 55976, "ELEMENT_SET_NO": 999, "REV_AT_EPOCH": 15287, "BSTAR": 0.0003182983, "MEAN_MOTION_DOT": 0.00013252, "MEAN_MOTION_DDOT": 0}, "tle": {"line1": "1 55976U 23039D   25351.99666067  .00013252  00000+0  31830-3 0  9994", "line2": "2 55976  97.5090 154.9461 0004490  58.3216 301.8468 15.41466700152873"}}, "geometry": {"type": "Point", "coordinates": [76.06726767419539, 82.34917094712205]}}, {"type": "Feature", "properties": {"norad_id": 56232, "name": "FENGYUN 3G", "group": "weather", "lat": 49.70994166357047, "lon": -62.97267020568035, "alt_km": 396.8453466919991, "timestamp": "2025-12-18T04:58:34.224676+00:00", "meta": {"OBJECT_NAME": "FENGYUN 3G", "OBJECT_ID": "2023-055A", "EPOCH": "2025-12-17T22:23:44.860704", "MEAN_MOTION": 15.53949654, "ECCENTRICITY": 0.00093217, "INCLINATION": 49.9923, "RA_OF_ASC_NODE": 200.6494, "ARG_OF_PERICENTER": 172.095, "MEAN_ANOMALY": 188.0167, "EPHEMERIS_TYPE": 0, "CLASSIFICATION_TYPE": "U", "NORAD_CAT_ID": 56232, "ELEMENT_SET_NO": 999, "REV_AT_EPOCH": 15183, "BSTAR": 0.00039380189, "MEAN_MOTION_DOT": 0.00025587, "MEAN_MOTION_DDOT": 0}, "tle": {"line1": "1 56232U 23055A   25351.93315811  .00025587  00000+0  39380-3 0  9992", "line2": "2 56232  49.9923 200.6494 0009321 172.0950 188.0167 15.53949654151830"}}, "geometry": {"type": "Point", "coordinates": [-62.97267020568035, 49.70994166357047]}}, {"type": "Feature", "properties": {"norad_id": 57166, "name": "METEOR-M2 3", "group": "weather", "lat": -1.106211589712983, "lon": -134.51710508907212, "alt_km": 817.4001059502198, "timestamp": "2025-12-18T04:58:34.224686+00:00", "meta": {"OBJECT_NAME": "METEOR-M2 3", "OBJECT_ID": "2023-091A", "EPOCH": "2025-12-17T23:04:11.553312", "MEAN_MOTION": 14.24026644, "ECCENTRICITY": 0.00036083, "INCLINATION": 98.6373, "RA_OF_ASC_NODE": 45.4093, "ARG_OF_PERICENTER": 353.4262, "MEAN_ANOMALY": 6.6869, "EPHEMERIS_TYPE": 0, "CLASSIFICATION_TYPE": "U", "NORAD_CAT_ID": 57166, "ELEMENT_SET_NO": 999, "REV_AT_EPOCH": 12872, "BSTAR": 2.1086908e-05, "MEAN_MOTION_DOT": 5e-08, "MEAN_MOTION_DDOT": 0}, "tle": {"line1": "1 57166U 23091A   25351.96124483  .00000005  00000+0  21087-4 0  9999", "line2": "2 57166  98.6373  45.4093 0003608 353.4262   6.6869 14.24026644128728"}}, "geometry": {"type": "Point", "coordinates": [-134.51710508907212, -1.106211589712983]}}, {"type": "Feature", "properties": {"norad_id": 57399, "name": "TIANMU-1 07", "group": "weather", "lat": -71.863031173297, "lon": -161.0594798366443, "alt_km": 492.37394175918416, "timestamp": "2025-12-18T04:58:34.224697+00:00", "meta": {"OBJECT_NAME": "TIANMU-1 07", "OBJECT_ID": "2023-101A", "EPOCH": "2025-12-17T23:09:23.446944", "MEAN_MOTION": 15.28145343, "ECCENTRICITY": 0.00054237, "INCLINATION": 97.2875, "RA_OF_ASC_NODE": 41.6998, "ARG_OF_PERICENTER": 68.5507, "MEAN_ANOMALY": 291.6311, "EPHEMERIS_TYPE": 0, "CLASSIFICATION_TYPE": "U", "NORAD_CAT_ID": 57399, "ELEMENT_SET_NO": 999, "REV_AT_EPOCH": 13395, "BSTAR": 0.00022491, "MEAN_MOTION_DOT": 6.1e-05, "MEAN_MOTION_DDOT": 0}, "tle": {"line1": "1 57399U 23101A   25351.96485471  .00006100  00000+0  22491-3 0  9997", "line2": "2 57399  97.2875  41.6998 0005423  68.5507 291.6311 15.28145343133955"}}, "geometry": {"type": "Point", "coordinates": [-161.0594798366443, -71.863031173297]}}, {"type": "Feature", "properties": {"norad_id": 57400, "name": "TIANMU-1 08", "group": "weather", "lat": 73.08771021292834, "lon": 16.848503338584624, "alt_km": 469.4044298688459, "timestamp": "2025-12-18T04:58:34.224711+00:00", "meta": {"OBJECT_NAME": "TIANMU-1 08", "OBJECT_ID": "2023-101B", "EPOCH": "2025-12-17T22:21:52.671168", "MEAN_MOTION": 15.28127718, "ECCENTRICITY": 0.00073452, "INCLINATION": 97.2863, "RA_OF_ASC_NODE": 41.4647, "ARG_OF_PERICENTER": 69.303, "MEAN_ANOMALY": 290.8997, "EPHEMERIS_TYPE": 0, "CLASSIFICATION_TYPE": "U", "NORAD_CAT_ID": 57400, "ELEMENT_SET_NO": 999, "REV_AT_EPOCH": 13394, "BSTAR": 0.0002148318, "MEAN_MOTION_DOT": 5.822e-05, "MEAN_MOTION_DDOT": 0}, "tle": {"line1": "1 57400U 23101B   25351.93185962  .00005822  00000+0  21483-3 0  9999", "line2": "2 57400  97.2863  41.4647 0007345  69.3030 290.8997 15.28127718133945"}}, "geometry": {"type": "Point", "coordinates": [16.848503338584624, 73.08771021292834]}}]}